{"type": "FeatureCollection", "features": [ {"type": "Feature", "properties": {"norad_id": 43107, "name": "BEIDOU-3 M7 (C27)", "group": "gnss", "lat": -51.11174450173372, "lon": -169.0688412080059, "alt_km": 21540.814004439617, "timestamp": "2025-12-14T11:29:50.303285+00:00", "meta": {"OBJECT_NAME": "BEIDOU-3 M7 (C27)", "OBJECT_ID": "2018-003A", "EPOCH": "2025-12-10T08:14:11.609952", "MEAN_MOTION": 1.86232173, "ECCENTRICITY": 0.00026083, "INCLINATION": 54.4988, "RA_OF_ASC_NODE": 308.8983, "ARG_OF_PERICENTER": 70.7786, "MEAN_ANOMALY": 289.2405, "EPHEMERIS_TYPE": 0, "CLASSIFICATION_TYPE": "U", "NORAD_CAT_ID": 43107, "ELEMENT_SET_NO": 999, "REV_AT_EPOCH": 5383, "BSTAR": 0, "MEAN_MOTION_DOT": -8.2e-07, "MEAN_MOTION_DDOT": 0}, "tle": {"line1": "1 43107U 18003A   25344.34318993 -.00000082  00000+0  00000+0 0  9994", "line2": "2 43107  54.4988 308.8983 0002608  70.7786 289.2405  1.86232173 53837"}}, "geometry": {"type": "Point", "coordinates": [-169.0688412080059, -51.11174450173372]}}, {"type": "Feature", "properties": {"norad_id": 43108, "name": "BEIDOU-3 M8 (C28)", "group": "gnss", "lat": -49.97580059127169, "lon": -109.46730241558895, "alt_km": 21520.747979170745, "timestamp": "2025-12-14T11:29:50.303296+00:00", "meta": {"OBJECT_NAME": "BEIDOU-3 M8 (C28)", "OBJECT_ID": "2018-003B", "EPOCH": "2025-12-11T21:34:27.940800", "MEAN_MOTION": 1.86230629, "ECCENTRICITY": 0.00047751, "INCLINATION": 54.4899, "RA_OF_ASC_NODE": 308.8263, "ARG_OF_PERICENTER": 274.4182, "MEAN_ANOMALY": 85.5183, "EPHEMERIS_TYPE": 0, "CLASSIFICATION_TYPE": "U", "NORAD_CAT_ID": 43108, "ELEMENT_SET_NO": 999, "REV_AT_EPOCH": 5387, "BSTAR": 0, "MEAN_MOTION_DOT": -9e-07, "MEAN_MOTION_DDOT": 0}, "tle": {"line1": "1 43108U 18003B   25345.89893450 -.00000090  00000+0  00000+0 0  9991", "line2": "2 43108  54.4899 308.8263 0004775 274.4182  85.5183  1.86230629 53878"}}, "geometry": {"type": "Point", "coordinates": [-109.46730241558895, -49.97580059127169]}}, {"type": "Feature", "properties": {"norad_id": 43207, "name": "BEIDOU-3 M4 (C22)", "group": "gnss", "lat": -5.389369383824083, "lon": 65.6741130769529, "alt_km": 21517.871845626527, "timestamp": "2025-12-14T11:29:50.303309+00:00", "meta": {"OBJECT_NAME": "BEIDOU-3 M4 (C22)", "OBJECT_ID": "2018-018A", "EPOCH": "2025-12-13T09:57:17.275392", "MEAN_MOTION": 1.86231174, "ECCENTRICITY": 0.00041262, "INCLINATION": 56.4868, "RA_OF_ASC_NODE": 69.2813, "ARG_OF_PERICENTER": 7.8207, "MEAN_ANOMALY": 352.2039, "EPHEMERIS_TYPE": 0, "CLASSIFICATION_TYPE": "U", "NORAD_CAT_ID": 43207, "ELEMENT_SET_NO": 999, "REV_AT_EPOCH": 5328, "BSTAR": 0, "MEAN_MOTION_DOT": -7.8e-07, "MEAN_MOTION_DDOT": 0}, "tle": {"line1": "1 43207U 18018A   25347.41478328 -.00000078  00000+0  00000+0 0  9996", "line2": "2 43207  56.4868  69.2813 0004126   7.8207 352.2039  1.86231174 53286"}}, "geometry": {"type": "Point", "coordinates": [65.6741130769529, -5.389369383824083]}}, {"type": "Feature", "properties": {"norad_id": 43208, "name": "BEIDOU-3 M3 (C21)", "group": "gnss", "lat": -40.47504222459307, "lon": 34.879390883231125, "alt_km": 21514.755307345553, "timestamp": "2025-12-14T11:29:50.303321+00:00", "meta": {"OBJECT_NAME": "BEIDOU-3 M3 (C21)", "OBJECT_ID": "2018-018B", "EPOCH": "2025-12-10T19:07:00.567840", "MEAN_MOTION": 1.8623124, "ECCENTRICITY": 0.0006564, "INCLINATION": 56.484, "RA_OF_ASC_NODE": 69.3721, "ARG_OF_PERICENTER": 317.0111, "MEAN_ANOMALY": 42.9593, "EPHEMERIS_TYPE": 0, "CLASSIFICATION_TYPE": "U", "NORAD_CAT_ID": 43208, "ELEMENT_SET_NO": 999, "REV_AT_EPOCH": 5323, "BSTAR": 0, "MEAN_MOTION_DOT": -5.7e-07, "MEAN_MOTION_DDOT": 0}, "tle": {"line1": "1 43208U 18018B   25344.79653435 -.00000057  00000+0  00000+0 0  9996", "line2": "2 43208  56.4840  69.3721 0006564 317.0111  42.9593  1.86231240 53231"}}, "geometry": {"type": "Point", "coordinates": [34.879390883231125, -40.47504222459307]}}, {"type": "Feature", "properties": {"norad_id": 43245, "name": "BEIDOU-3 M9 (C29)", "group": "gnss", "lat": 12.938707753251956, "lon": 116.90730866292904, "alt_km": 21528.853720345218, "timestamp": "2025-12-14T11:29:50.303331+00:00", "meta": {"OBJECT_NAME": "BEIDOU-3 M9 (C29)", "OBJECT_ID": "2018-029A", "EPOCH": "2025-12-13T03:51:10.072800", "MEAN_MOTION": 1.86228196, "ECCENTRICITY": 0.00015236, "INCLINATION": 54.365, "RA_OF_ASC_NODE": 306.4524, "ARG_OF_PERICENTER": 281.5597, "MEAN_ANOMALY": 78.4131, "EPHEMERIS_TYPE": 0, "CLASSIFICATION_TYPE": "U", "NORAD_CAT_ID": 43245, "ELEMENT_SET_NO": 999, "REV_AT_EPOCH": 5243, "BSTAR": 0, "MEAN_MOTION_DOT": -9.6e-07, "MEAN_MOTION_DDOT": 0}, "tle": {"line1": "1 43245U 18029A   25347.16053325 -.00000096  00000+0  00000+0 0  9998", "line2": "2 43245  54.3650 306.4524 0001523 281.5597  78.4131  1.86228196 52436"}}, "geometry": {"type": "Point", "coordinates": [116.90730866292904, 12.938707753251956]}}, {"type": "Feature", "properties": {"norad_id": 43246, "name": "BEIDOU-3 M10 (C30)", "group": "gnss", "lat": -21.986888372870112, "lon": 143.2401727231105, "alt_km": 21541.282474244428, "timestamp": "2025-12-14T11:29:50.303342+00:00", "meta": {"OBJECT_NAME": "BEIDOU-3 M10 (C30)", "OBJECT_ID": "2018-029B", "EPOCH": "2025-12-13T02:17:56.021856", "MEAN_MOTION": 1.86228806, "ECCENTRICITY": 0.00040465, "INCLINATION": 54.3625, "RA_OF_ASC_NODE": 306.4821, "ARG_OF_PERICENTER": 0.6072, "MEAN_ANOMALY": 359.3832, "EPHEMERIS_TYPE": 0, "CLASSIFICATION_TYPE": "U", "NORAD_CAT_ID": 43246, "ELEMENT_SET_NO": 999, "REV_AT_EPOCH": 5241, "BSTAR": 0, "MEAN_MOTION_DOT": -9.6e-07, "MEAN_MOTION_DDOT": 0}, "tle": {"line1": "1 43246U 18029B   25347.09578729 -.00000096  00000+0  00000+0 0  9991", "line2": "2 43246  54.3625 306.4821 0004046   0.6072 359.3832  1.86228806 52415"}}, "geometry": {"type": "Point", "coordinates": [143.2401727231105, -21.986888372870112]}}, {"type": "Feature", "properties": {"norad_id": 43286, "name": "IRNSS-1I", "group": "gnss", "lat": -23.24000953389036, "lon": -52.67721967651205, "alt_km": 35732.34381628819, "timestamp": "2025-12-14T11:29:50.303354+00:00", "meta": {"OBJECT_NAME": "IRNSS-1I", "OBJECT_ID": "2018-035A", "EPOCH": "2025-12-10T20:46:45.825888", "MEAN_MOTION": 1.00270473, "ECCENTRICITY": 0.0021801, "INCLINATION": 29.146, "RA_OF_ASC_NODE": 77.1264, "ARG_OF_PERICENTER": 181.9029, "MEAN_ANOMALY": 187.524, "EPHEMERIS_TYPE": 0, "CLASSIFICATION_TYPE": "U", "NORAD_CAT_ID": 43286, "ELEMENT_SET_NO": 999, "REV_AT_EPOCH": 2819, "BSTAR": 0, "MEAN_MOTION_DOT": 8.2e-07, "MEAN_MOTION_DDOT": 0}, "tle": {"line1": "1 43286U 18035A   25344.86580817  .00000082  00000+0  00000+0 0  9999", "line2": "2 43286  29.1460  77.1264 0021801 181.9029 187.5240  1.00270473 28197"}}, "geometry": {"type": "Point", "coordinates": [-52.67721967651205, -23.24000953389036]}}, {"type": "Feature", "properties": {"norad_id": 43508, "name": "COSMOS 2527 (756)", "group": "gnss", "lat": -33.47882531092647, "lon": -82.37468456150859, "alt_km": 19112.539632464253, "timestamp": "2025-12-14T11:29:50.303366+00:00", "meta": {"OBJECT_NAME": "COSMOS 2527 (756)", "OBJECT_ID": "2018-053A", "EPOCH": "2025-12-13T06:10:24.099168", "MEAN_MOTION": 2.13102083, "ECCENTRICITY": 0.00086052, "INCLINATION": 65.4729, "RA_OF_ASC_NODE": 80.1142, "ARG_OF_PERICENTER": 224.7234, "MEAN_ANOMALY": 135.2204, "EPHEMERIS_TYPE": 0, "CLASSIFICATION_TYPE": "U", "NORAD_CAT_ID": 43508, "ELEMENT_SET_NO": 999, "REV_AT_EPOCH": 5831, "BSTAR": 0, "MEAN_MOTION_DOT": -4.6e-07, "MEAN_MOTION_DDOT": 0}, "tle": {"line1": "1 43508U 18053A   25347.25722337 -.00000046  00000+0  00000+0 0  9998", "line2": "2 43508  65.4729  80.1142 0008605 224.7234 135.2204  2.13102083 58318"}}, "geometry": {"type": "Point", "coordinates": [-82.37468456150859, -33.47882531092647]}}, {"type": "Feature", "properties": {"norad_id": 43539, "name": "BEIDOU-2 IGSO-7 (C16)", "group": "gnss", "lat": -17.443005906359982, "lon": -2.7009226574669802, "alt_km": 35468.219875141105, "timestamp": "2025-12-14T11:29:50.303377+00:00", "meta": {"OBJECT_NAME": "BEIDOU-2 IGSO-7 (C16)", "OBJECT_ID": "2018-057A", "EPOCH": "2025-12-12T21:40:21.690912", "MEAN_MOTION": 1.00257087, "ECCENTRICITY": 0.00924019, "INCLINATION": 55.1754, "RA_OF_ASC_NODE": 164.6693, "ARG_OF_PERICENTER": 235.1751, "MEAN_ANOMALY": 117.987, "EPHEMERIS_TYPE": 0, "CLASSIFICATION_TYPE": "U", "NORAD_CAT_ID": 43539, "ELEMENT_SET_NO": 999, "REV_AT_EPOCH": 2725, "BSTAR": 0, "MEAN_MOTION_DOT": -3.7e-07, "MEAN_MOTION_DDOT": 0}, "tle": {"line1": "1 43539U 18057A   25346.90302883 -.00000037  00000+0  00000+0 0  9997", "line2": "2 43539  55.1754 164.6693 0092401 235.1751 117.9870  1.00257087 27257"}}, "geometry": {"type": "Point", "coordinates": [-2.7009226574669802, -17.443005906359982]}}, {"type": "Feature", "properties": {"norad_id": 43564, "name": "GSAT0221 (GALILEO 25)", "group": "gnss", "lat": 49.27060580125685, "lon": 118.33204380995197, "alt_km": 23235.653944572055, "timestamp": "2025-12-14T11:29:50.303389+00:00", "meta": {"OBJECT_NAME": "GSAT0221 (GALILEO 25)", "OBJECT_ID": "2018-060A", "EPOCH": "2025-12-13T02:48:59.160960", "MEAN_MOTION": 1.70475886, "ECCENTRICITY": 0.0006714, "INCLINATION": 57.2278, "RA_OF_ASC_NODE": 346.8073, "ARG_OF_PERICENTER": 283.6073, "MEAN_ANOMALY": 76.3366, "EPHEMERIS_TYPE": 0, "CLASSIFICATION_TYPE": "U", "NORAD_CAT_ID": 43564, "ELEMENT_SET_NO": 999, "REV_AT_EPOCH": 4599, "BSTAR": 0, "MEAN_MOTION_DOT": -8.6e-07, "MEAN_MOTION_DDOT": 0}, "tle": {"line1": "1 43564U 18060A   25347.11735140 -.00000086  00000+0  00000+0 0  9993", "line2": "2 43564  57.2278 346.8073 0006714 283.6073  76.3366  1.70475886 45997"}}, "geometry": {"type": "Point", "coordinates": [118.33204380995197, 49.27060580125685]}}]}